INTELSAT 701 (IS-701)   
1 22871U 93066A   17284.67889954 -.00000098  00000-0  00000+0 0  9999
2 22871   4.4151  66.4448 0003397 166.9519 217.8316  0.99323979 87552
INTELSAT 26 (IS-26)     
1 24732U 97007A   17284.88796020 -.00000027  00000-0  00000-0 0  9993
2 24732   7.6360  49.1785 0004488 183.7118 173.2591  1.00273389 40947
GALAXY 25 (G-25)        
1 24812U 97026A   17284.20316362 -.00000181  00000-0  00000+0 0  9996
2 24812   0.0152 189.1040 0003432   4.4070 166.4798  1.00269784 74567
INTELSAT 5 (IS-5)       
1 24916U 97046A   17284.70350230 -.00000159  00000-0  00000-0 0  9996
2 24916   3.7697  70.4903 0003718 153.5118 206.6588  1.00272477 73838
INTELSAT 805 (IS-805)   
1 25371U 98037A   17284.80297264 -.00000051  00000-0  00000-0 0  9992
2 25371   0.2556  93.8331 0003362 123.8026 261.0306  1.00270834 70764
AFRISTAR                
1 25515U 98063A   17285.06021435  .00000105  00000-0  00000+0 0  9993
2 25515   3.5210  69.3187 0003858 139.2583 214.9204  1.00271503 69343
INTELSAT 8 (IS-8)       
1 25522U 98065A   17285.34447580 -.00000129  00000-0  00000+0 0  9994
2 25522   1.2688  87.2949 0296950 222.7425  89.3625  0.95184914 69196
GALAXY 11 (G-11)        
1 26038U 99071A   17285.08841980  .00000116  00000-0  00000+0 0  9993
2 26038   0.0771  78.3556 0000996 226.3596 152.9009  1.00271620 65317
SIRIUS-1                
1 26390U 00035A   17285.06699712 -.00000004  00000-0  00000+0 0  9995
2 26390  59.5003 223.8909 0003088 255.9102 341.8740  1.57876836 65380
INTELSAT 9 (IS-9)       
1 26451U 00043A   17285.18035372 -.00000235  00000-0  00000+0 0  9997
2 26451   3.7573  70.7075 0003194 152.0817 193.6145  1.00271253 63056
INTELSAT 12 (IS-12)     
1 26590U 00068A   17284.95674546  .00000116  00000-0  00000+0 0  9991
2 26590   0.7284  92.1506 0003223 132.7959 185.2310  1.00271130 62018
INTELSAT 1R (IS-1R)     
1 26608U 00072A   17284.80118707 -.00000122  00000-0  00000+0 0  9990
2 26608   0.5491  94.4907 0000237 328.8151  48.8266  1.00179005 61864
INTELSAT 10 (IS-10)     
1 26766U 01019A   17285.17554565  .00000105  00000-0  00000+0 0  9994
2 26766   1.7579  84.5826 0001808 145.7453 261.3349  1.00273489 60140
INTELSAT 901 (IS-901)   
1 26824U 01024A   17284.86018212 -.00000161  00000-0  00000-0 0  9998
2 26824   0.0125 257.6892 0002696 315.9811  98.6464  1.00271261 59902
INTELSAT 902 (IS-902)   
1 26900U 01039A   17284.88796020  .00000011  00000-0  00000-0 0  9994
2 26900   0.0377 100.9827 0003028 110.6550 190.7096  1.00273026 58921
DIRECTV 4S              
1 26985U 01052A   17285.21587619 -.00000135  00000-0  00000+0 0  9999
2 26985   0.0118 148.8720 0002928  60.5294 148.1210  1.00271618 58218
INTELSAT 904 (IS-904)   
1 27380U 02007A   17285.14279411  .00000115  00000-0  00000+0 0  9997
2 27380   0.0150 160.6993 0002698  44.4375 272.2969  1.00271880 57303
INTELSAT 903 (IS-903)   
1 27403U 02016A   17285.17120087 -.00000245  00000-0  00000+0 0  9995
2 27403   0.0890  93.6085 0001876  62.0524 255.4221  1.00272311 56860
DIRECTV 5 (TEMPO 1)     
1 27426U 02023A   17284.25021427 -.00000074  00000-0  00000+0 0  9994
2 27426   0.0231 217.8964 0003407 353.1171 148.9664  1.00270079 56512
INTELSAT 905 (IS-905)   
1 27438U 02027A   17284.86504476 -.00000204  00000-0  00000-0 0  9994
2 27438   0.0211 241.1830 0002631 319.5223 106.8819  1.00272069 19589
GALAXY 3C (G-3C)        
1 27445U 02030A   17285.20568855 -.00000173  00000-0  00000+0 0  9990
2 27445   0.0187 275.5655 0001938  39.1780  45.2642  1.00270458 56173
INTELSAT 906 (IS-906)   
1 27513U 02041A   17285.08521444 -.00000007  00000-0  00000+0 0  9993
2 27513   0.0326 255.5282 0002899 305.9818 274.1986  1.00270896 55181
INTELSAT 907 (IS-907)   
1 27683U 03007A   17284.02132889 -.00000220  00000-0  00000+0 0  9995
2 27683   0.0156 234.4780 0002908 330.7898 154.7444  1.00271135 53596
GALAXY 12 (G-12)        
1 27715U 03013B   17284.57268344  .00000039  00000-0  00000-0 0  9992
2 27715   0.0408 104.7729 0002271 113.7140 239.0443  1.00271214 20347
GALAXY 23 (G-23)        
1 27854U 03034A   17285.37705580 -.00000009  00000-0  00000+0 0  9993
2 27854   0.0168 132.4588 0002944  73.3759 190.0835  1.00272467 56766
GALAXY 13 (HORIZONS-1)  
1 27954U 03044A   17285.31492299  .00000026  00000-0  00000+0 0  9997
2 27954   0.0241 135.1546 0001855  80.0579 152.2435  1.00272087 51374
DIRECTV 7S              
1 28238U 04016A   17285.39982694 -.00000021  00000-0  00000+0 0  9990
2 28238   0.0317  40.7555 0003095 168.7789 196.5108  1.00272130 49284
INTELSAT 10-02          
1 28358U 04022A   17285.28466946 -.00000033  00000-0  00000+0 0  9998
2 28358   0.0251 135.9766 0001950 169.5248 177.0612  1.00270227 48842
XM-3 (RHYTHM)           
1 28626U 05008A   17284.82688069 -.00000226  00000-0  00000-0 0  9997
2 28626   0.0190  24.6685 0000395 200.6865   7.8531  1.00270536 10853
SPACEWAY 1              
1 28644U 05015A   17285.21807439 -.00000124  00000-0  00000+0 0  9999
2 28644   0.0103 216.8596 0000071 349.5640 150.1408  1.00270485 45731
DIRECTV 8               
1 28659U 05019A   17284.22452391 -.00000134  00000-0  00000+0 0  9993
2 28659   0.0162 212.8457 0003461   1.6067 145.5251  1.00270169 45394
GALAXY 28 (G-28)        
1 28702U 05022A   17285.14081010 -.00000206  00000-0  00000+0 0  9994
2 28702   0.0213 217.7642 0000084 260.7821 224.0435  1.00269394 45030
GALAXY 14 (G-14)        
1 28790U 05030A   17285.39824903  .00000015  00000-0  00000+0 0  9990
2 28790   0.0408  88.1694 0002555 120.8282 190.5587  1.00269942 44518
GALAXY 15 (G-15)        
1 28884U 05041A   17284.59993653  .00000059  00000-0  00000-0 0  9995
2 28884   0.0373  93.3426 0001428 119.8576 250.1724  1.00271166 43961
SPACEWAY 2              
1 28903U 05046B   17285.21189307 -.00000148  00000-0  00000+0 0  9994
2 28903   0.0280  36.2138 0000350 268.7710  53.2346  1.00271444 43717
GALAXY 16 (G-16)        
1 29236U 06023A   17285.21476546 -.00000148  00000-0  00000+0 0  9994
2 29236   0.0246 263.8342 0002887 307.8676 147.6069  1.00269514 41484
DIRECTV 9S              
1 29494U 06043A   17284.83660483 -.00000135  00000-0  00000+0 0  9990
2 29494   0.0087 215.4316 0003190 347.9906  17.2861  1.00271637 40318
XM-4 (BLUES)            
1 29520U 06049A   17285.14475069 -.00000045  00000-0  00000+0 0  9995
2 29520   0.0447  38.7651 0000263 288.6705 350.3807  1.00270899 40200
GALAXY 17 (G-17)        
1 31307U 07016B   17285.16644431 -.00000196  00000-0  00000+0 0  9996
2 31307   0.0370   3.6840 0003160 196.1444 150.0430  1.00272522 38281
DIRECTV 10              
1 31862U 07032A   17284.23012014 -.00000122  00000-0  00000+0 0  9992
2 31862   0.0330 359.6744 0000474 255.7578 104.5884  1.00271827 37615
SPACEWAY 3              
1 32018U 07036A   17285.20746855 -.00000173  00000-0  00000+0 0  9991
2 32018   0.0433  38.6065 0000107 270.8697  51.2418  1.00270933 37344
INTELSAT 11 (IS-11)     
1 32253U 07044B   17285.18521333 -.00000290  00000-0  00000+0 0  9990
2 32253   0.0201 218.7064 0001965  12.1856 173.7790  1.00271740 36748
HORIZONS-2              
1 32388U 07063B   17284.82757744 -.00000203  00000-0  00000-0 0  9992
2 32388   0.0118 200.1717 0002608  10.4076 192.7870  1.00269434 36066
DIRECTV 11              
1 32729U 08013A   17284.90743865 -.00000147  00000-0  00000+0 0  9991
2 32729   0.0402  33.0849 0000150 160.5747  54.5310  1.00271311 35141
GALAXY 18 (G-18)        
1 32951U 08024A   17284.28587902  .00000006  00000-0  00000+0 0  9992
2 32951   0.0108 209.0895 0003416   6.7576 144.1556  1.00272971 34292
INTELSAT 25 (IS-25)     
1 33153U 08034A   17285.02969600 -.00000245  00000-0  00000+0 0  9996
2 33153   0.0069 230.9380 0002307   1.8210 127.2438  1.00270025 33854
GALAXY 19 (G-19)        
1 33376U 08045A   17284.21383222 -.00000158  00000-0  00000-0 0  9999
2 33376   0.0151 146.7602 0003161  64.3695 148.8775  1.00273415 33167
SIRIUS FM-5             
1 35493U 09034A   17284.82688069 -.00000221  00000-0  00000-0 0  9995
2 35493   0.0172 282.9204 0000642  82.3142 226.9153  1.00270593 14948
INTELSAT 14 (IS-14)     
1 36097U 09064A   17285.06706969 -.00000295  00000-0  00000+0 0  9996
2 36097   0.0131 256.9969 0002564 316.0673 146.9434  1.00270712 28923
INTELSAT 15 (IS-15)     
1 36106U 09067A   17284.82757744 -.00000205  00000-0  00000-0 0  9992
2 36106   0.0118 194.6727 0002419  26.6030 182.3933  1.00269072  9518
DIRECTV 12              
1 36131U 09075A   17285.21807711 -.00000125  00000-0  00000+0 0  9993
2 36131   0.0117 223.6729 0000197  49.4434  83.5754  1.00270558 28595
INTELSAT 16 (IS-16)     
1 36397U 10006A   17284.40896946 -.00000304  00000-0  00000+0 0  9990
2 36397   0.0220 111.7209 0001768 103.9435 253.6803  1.00270949 27943
XM-5                    
1 37185U 10053A   17284.82688069 -.00000225  00000-0  00000-0 0  9992
2 37185   0.0189 231.4218 0001746 126.9688 234.6928  1.00270222 25707
INTELSAT 17 (IS-17)     
1 37238U 10065B   17285.15882559 -.00000024  00000-0  00000+0 0  9997
2 37238   0.0169 192.7209 0003104  14.1802 297.2269  1.00272968 25138
INTELSAT NEW DAWN       
1 37392U 11016A   17284.91854843  .00000135  00000-0  00000-0 0  9996
2 37392   0.0247 236.1730 0001632  22.0902 125.9229  1.00273961 21516
INTELSAT 18 (IS-18)     
1 37834U 11056A   17284.78590861  .00000033  00000-0  00000+0 0  9999
2 37834   0.0166 190.1529 0001982  27.7987 265.5402  1.00272373 22066
INTELSAT 22 (IS-22)     
1 38098U 12011A   17284.74271751 -.00000080  00000-0  00000-0 0  9998
2 38098   0.0332  70.8376 0002111 126.5832 162.5964  1.00272814 20045
INTELSAT 19 (IS-19)     
1 38356U 12030A   17284.48252673 -.00000076  00000-0  00000-0 0  9994
2 38356   0.0051 229.4134 0002888 338.6610 151.9100  1.00269926 18675
INTELSAT 20 (IS-20)     
1 38740U 12043A   17283.75545570 -.00000042  00000-0  00000+0 0  9997
2 38740   0.0122 181.9104 0002499 356.2590 181.8585  1.00272548 19035
INTELSAT 21 (IS-21)     
1 38749U 12045A   17285.10313416 -.00000306  00000-0  00000+0 0  9994
2 38749   0.0218 206.7032 0002376   5.1885 148.0939  1.00268782 18859
INTELSAT 23 (IS-23)     
1 38867U 12057A   17284.09200788 -.00000303  00000-0  00000+0 0  9999
2 38867   0.0165 238.5643 0001942 326.8108 154.6415  1.00271421 18318
SIRIUS FM-6             
1 39360U 13058A   17284.26698189 -.00000036  00000-0  00000-0 0  9999
2 39360   0.0199 253.0389 0000473 218.7938 248.1981  1.00271682 14379
INTELSAT 30 (IS-30)     
1 40271U 14062A   17285.05773457 -.00000172  00000-0  00000+0 0  9998
2 40271   0.0168 193.3312 0001642 261.3245 211.8879  1.00269275 10974
INTELSAT 34 (IS-34)     
1 40874U 15039A   17284.09893541 -.00000304  00000-0  00000+0 0  9999
2 40874   0.0174 234.0280 0000236  64.2209  61.7749  1.00270548  7884
INTELSAT 29E (IS-29E)   
1 41308U 16004A   17284.08369803 -.00000300  00000-0  00000-0 0  9990
2 41308   0.0116 230.0734 0001801 335.8552 154.0886  1.00272049  6391
INTELSAT 31 (IS-31)     
1 41581U 16035A   17280.21945154 -.00000161  00000-0  00000+0 0  9991
2 41581   0.0182 231.6072 0001797   3.4286 124.9790  1.00270165  4862
INTELSAT 36 (IS-36)     
1 41747U 16053A   17283.75539599 -.00000043  00000-0  00000-0 0  9999
2 41747   0.0232 319.4378 0003264  14.6656  25.9075  1.00272155  4195
INTELSAT 33E (IS-33E)   
1 41748U 16053B   17284.77622292  .00000028  00000-0  00000-0 0  9998
2 41748   0.0082  96.0920 0003418 121.7657 142.1426  1.00271948  4463
INTELSAT 32E (IS-32E)   
1 41945U 17007B   17284.06483126 -.00000287  00000-0  00000+0 0  9997
2 41945   0.0216 203.4999 0001429 340.1169 176.3822  1.00268596  2457
INTELSAT 35E (IS-35E)   
1 42818U 17041A   17285.03802029 -.00000259  00000-0  00000+0 0  9999
2 42818   0.0184 257.9528 0002055 310.7135 151.3461  1.00271504  1055
INTELSAT 37E (IS-37E)   
1 42950U 17059A   17283.29910367 -.00000126  00000-0  00000+0 0  9999
2 42950   0.9905 171.0336 4160149 178.2089 184.0764  1.69128146   217
